[{"OBJECT_NAME":"ICEYE-X41","OBJECT_ID":"2025-009CV","EPOCH":"2026-03-09T16:55:08.694336","MEAN_MOTION":14.96071666,"ECCENTRICITY":0.00019001,"INCLINATION":97.711,"RA_OF_ASC_NODE":149.7146,"ARG_OF_PERICENTER":53.5813,"MEAN_ANOMALY":306.5584,"EPHEMERIS_TYPE":0,"CLASSIFICATION_TYPE":"U","NORAD_CAT_ID":62700,"ELEMENT_SET_NO":999,"REV_AT_EPOCH":6253,"BSTAR":0.00045867277,"MEAN_MOTION_DOT":5.098e-5,"MEAN_MOTION_DDOT":0},{"OBJECT_NAME":"LEMUR-2-LEIA-PHILIP","OBJECT_ID":"2025-052AN","EPOCH":"2026-03-09T22:47:11.533920","MEAN_MOTION":14.96639353,"ECCENTRICITY":0.00032822,"INCLINATION":97.6941,"RA_OF_ASC_NODE":322.5414,"ARG_OF_PERICENTER":181.695,"MEAN_ANOMALY":178.4261,"EPHEMERIS_TYPE":0,"CLASSIFICATION_TYPE":"U","NORAD_CAT_ID":63246,"ELEMENT_SET_NO":999,"REV_AT_EPOCH":5382,"BSTAR":0.00057534341,"MEAN_MOTION_DOT":6.505e-5,"MEAN_MOTION_DDOT":0}]
